{
  "norad_id": 63818,
  "name": "STARLINK-34058",
  "history": [
    {
      "epoch": "2026-03-28T19:34:18.482880Z",
      "apogee_km": 483.4606833125026,
      "perigee_km": 482.5465049397417,
      "latitude_deg": 6.153279148103197e-05,
      "longitude_deg": -55.61426756184779,
      "height_km": 482.34196415062326,
      "semi_major_axis_km": 6861.140594126122,
      "eccentricity": 6.662e-05,
      "inclination_deg": 42.9966,
      "raan_deg": 64.1932,
      "arg_perigee_deg": 17.2594,
      "mean_anomaly_deg": 342.8281,
      "mean_motion_rev_day": 15.27595196
    },
    {
      "epoch": "2026-03-29T04:59:14.276832Z",
      "apogee_km": 484.1777752042872,
      "perigee_km": 481.77364131131344,
      "latitude_deg": -6.321024752355704e-06,
      "longitude_deg": 160.5503045258762,
      "height_km": 482.6908862232037,
      "semi_major_axis_km": 6861.1127082578005,
      "eccentricity": 0.0001752,
      "inclination_deg": 42.9999,
      "raan_deg": 61.977,
      "arg_perigee_deg": 272.947,
      "mean_anomaly_deg": 87.1181,
      "mean_motion_rev_day": 15.27604509
    },
    {
      "epoch": "2026-03-30T04:31:35.109120Z",
      "apogee_km": 483.48115006465105,
      "perigee_km": 482.51647436945404,
      "latitude_deg": -1.6887032977657632e-05,
      "longitude_deg": 160.95847536733908,
      "height_km": 483.01964990630006,
      "semi_major_axis_km": 6861.135812217052,
      "eccentricity": 7.03e-05,
      "inclination_deg": 42.9998,
      "raan_deg": 56.4387,
      "arg_perigee_deg": 239.4878,
      "mean_anomaly_deg": 120.5904,
      "mean_motion_rev_day": 15.27596793
    }
  ]
}